COSMOS 2425 (716)       
1 29670U 06062A   18075.18363204  .00000040  00000-0  10000-3 0  9994
2 29670  65.3247 295.6807 0022571 349.9721  12.1241  2.13104865 87334
COSMOS 2426 (717)       
1 29671U 06062B   18075.05118725  .00000040  00000-0  10000-3 0  9997
2 29671  65.3432 295.7810 0016494 159.0202 317.8945  2.13103016 87330
COSMOS 2433 (720)       
1 32275U 07052A   18074.99630348  .00000004  00000-0  10000-3 0  9993
2 32275  65.6460  56.4884 0005224 280.5480 129.4777  2.13104586 80840
COSMOS 2432 (719)       
1 32276U 07052B   18075.09490981  .00000004  00000-0  10000-3 0  9993
2 32276  65.6584  56.5620 0013600 326.9736 110.8596  2.13103938 80846
COSMOS 2434 (721)       
1 32393U 07065A   18075.18189303  .00000040  00000-0  00000+0 0  9995
2 32393  64.9397 294.6992 0005043  88.4247 352.3089  2.13102836 79558
COSMOS 2436 (723)       
1 32395U 07065C   18074.70343515  .00000041  00000-0  10000-3 0  9997
2 32395  64.9493 294.7659 0016735   5.0384 118.6713  2.13104209 79479
COSMOS 2456 (730)       
1 36111U 09070A   18074.96437477  .00000005  00000-0  00000+0 0  9999
2 36111  64.1836 174.2871 0004015 321.6361 124.2304  2.13102773 64219
COSMOS 2457 (733)       
1 36112U 09070B   18075.23755069  .00000008  00000-0  00000+0 0  9994
2 36112  64.1663 174.1905 0006121 163.8589 258.9127  2.13101498 64225
COSMOS 2458 (734)       
1 36113U 09070C   18075.11137553  .00000006  00000-0  10000-3 0  9997
2 36113  64.1711 174.2049 0001871  24.5965 349.6738  2.13102093 64226
COSMOS 2459 (731)       
1 36400U 10007A   18075.00799141  .00000002  00000-0  10000-3 0  9999
2 36400  65.5548  55.5603 0028742 347.2709 291.4120  2.13102226 62564
COSMOS 2461 (735)       
1 36401U 10007B   18074.60849889  .00000002  00000-0  10000-3 0  9990
2 36401  65.5484  55.5508 0005449  41.3362 201.4555  2.13102144 62555
COSMOS 2460 (732)       
1 36402U 10007C   18075.01137853  .00000002  00000-0  10000-3 0  9998
2 36402  65.5357  55.5044 0002842 304.0069 288.6917  2.13101657 62565
COSMOS 2464 (736)       
1 37139U 10041C   18075.01715958  .00000039  00000-0  00000+0 0  9997
2 37139  64.5448 294.5587 0025463  14.4894 167.6506  2.13102683 58635
COSMOS 2471 (701K)      
1 37372U 11009A   18075.06412744  .00000001  00000-0  00000+0 0  9992
2 37372  65.5351  55.4497 0009284 245.3551 169.7847  2.13107594 54846
COSMOS 2474 (742)       
1 37829U 11055A   18075.04829196  .00000006  00000-0  00000+0 0  9996
2 37829  64.5075 174.9627 0007903 245.9702 122.8453  2.13101812 50214
COSMOS 2476 (744)       
1 37867U 11064A   18075.10108087  .00000006  00000-0  00000+0 0  9994
2 37867  64.4878 175.0248 0017612 241.2524 214.0751  2.13101922 49569
COSMOS 2477 (745)       
1 37868U 11064B   18074.80207174  .00000003  00000-0  00000+0 0  9995
2 37868  64.4954 175.0821 0015325 242.2352 162.6698  2.13101690 49516
COSMOS 2475 (743)       
1 37869U 11064C   18074.80954260  .00000003  00000-0  00000-0 0  9992
2 37869  64.5027 175.0762 0019702 268.7424  98.5281  2.13101805 49523
COSMOS 2485 (747)       
1 39155U 13019A   18075.38838105  .00000009  00000-0  00000+0 0  9992
2 39155  64.6567 175.1037 0017972 235.8576 124.8009  2.13101868 38044
COSMOS 2492 (754)       
1 39620U 14012A   18075.38341925  .00000001  00000-0  10000-3 0  9999
2 39620  65.4271  55.3909 0017049 324.9898  66.5055  2.13103407 30991
COSMOS 2500 (755)       
1 40001U 14032A   18074.87967760  .00000001  00000-0  00000-0 0  9996
2 40001  65.3673  55.3843 0006475 232.7688 354.7249  2.13102775 29196
COSMOS 2501 (702K)      
1 40315U 14075A   18075.03969451  .00000037  00000-0  00000+0 0  9997
2 40315  64.2699 295.8023 0014037 206.8264 306.1200  2.13098464 25605
COSMOS 2514 (751)       
1 41330U 16008A   18075.03484142  .00000001  00000-0  00000+0 0  9993
2 41330  65.1697  55.4559 0010055 232.9369 294.2774  2.13103263 16367
COSMOS 2516 (753)       
1 41554U 16032A   18075.11919928  .00000038  00000-0  00000+0 0  9992
2 41554  64.4922 295.6393 0009984 219.6709 263.6743  2.13101590 13972
COSMOS 2522 (752)       
1 42939U 17055A   18075.19710632  .00000038  00000-0  00000+0 0  9995
2 42939  64.7202 295.5762 0005549 258.6103 150.9170  2.13101891  3736
